{"fetched_at":"2026-07-14T17:40:26.806Z","source":"https://celestrak.org/NORAD/elements/gp.php?GROUP=qianfan&FORMAT=JSON","constellation":"qianfan","records":[{"OBJECT_NAME":"QIANFAN-177","OBJECT_ID":"2026-124N","EPOCH":"2026-07-13T21:58:34.406400","CLASSIFICATION_TYPE":"U","MEAN_MOTION":14.00187022,"ECCENTRICITY":0.0008365,"INCLINATION":88.9969,"RA_OF_ASC_NODE":358.9984,"ARG_OF_PERICENTER":59.0912,"MEAN_ANOMALY":301.1088,"EPHEMERIS_TYPE":0,"NORAD_CAT_ID":69394,"ELEMENT_SET_NO":999,"REV_AT_EPOCH":560,"BSTAR":-0.000015687,"MEAN_MOTION_DOT":-9e-8,"MEAN_MOTION_DDOT":0},{"OBJECT_NAME":"QIANFAN-178","OBJECT_ID":"2026-124P","EPOCH":"2026-07-14T04:47:26.176128","CLASSIFICATION_TYPE":"U","MEAN_MOTION":14.02435711,"ECCENTRICITY":0.0006444,"INCLINATION":88.9991,"RA_OF_ASC_NODE":358.9735,"ARG_OF_PERICENTER":75.1878,"MEAN_ANOMALY":285.0016,"EPHEMERIS_TYPE":0,"NORAD_CAT_ID":69395,"ELEMENT_SET_NO":999,"REV_AT_EPOCH":564,"BSTAR":-0.000032302,"MEAN_MOTION_DOT":-3.6e-7,"MEAN_MOTION_DDOT":0},{"OBJECT_NAME":"QIANFAN-179","OBJECT_ID":"2026-124Q","EPOCH":"2026-07-13T19:49:54.105024","CLASSIFICATION_TYPE":"U","MEAN_MOTION":14.02826284,"ECCENTRICITY":0.0005536,"INCLINATION":89.0014,"RA_OF_ASC_NODE":359.011,"ARG_OF_PERICENTER":59.1069,"MEAN_ANOMALY":301.0656,"EPHEMERIS_TYPE":0,"NORAD_CAT_ID":69396,"ELEMENT_SET_NO":999,"REV_AT_EPOCH":559,"BSTAR":0.000049189,"MEAN_MOTION_DOT":9e-7,"MEAN_MOTION_DDOT":0},{"OBJECT_NAME":"QIANFAN-180","OBJECT_ID":"2026-124R","EPOCH":"2026-07-13T21:34:19.915968","CLASSIFICATION_TYPE":"U","MEAN_MOTION":14.00768991,"ECCENTRICITY":0.0007226,"INCLINATION":88.9972,"RA_OF_ASC_NODE":359.0007,"ARG_OF_PERICENTER":64.6905,"MEAN_ANOMALY":295.5022,"EPHEMERIS_TYPE":0,"NORAD_CAT_ID":69397,"ELEMENT_SET_NO":999,"REV_AT_EPOCH":560,"BSTAR":0.00003363,"MEAN_MOTION_DOT":6.4e-7,"MEAN_MOTION_DDOT":0},{"OBJECT_NAME":"QIANFAN-181","OBJECT_ID":"2026-124S","EPOCH":"2026-07-13T13:25:23.511360","CLASSIFICATION_TYPE":"U","MEAN_MOTION":13.90016116,"ECCENTRICITY":0.0001178,"INCLINATION":88.999,"RA_OF_ASC_NODE":359.0826,"ARG_OF_PERICENTER":98.1158,"MEAN_ANOMALY":262.0148,"EPHEMERIS_TYPE":0,"NORAD_CAT_ID":69398,"ELEMENT_SET_NO":999,"REV_AT_EPOCH":553,"BSTAR":-1.6505,"MEAN_MOTION_DOT":-0.01902195,"MEAN_MOTION_DDOT":0},{"OBJECT_NAME":"QIANFAN-182","OBJECT_ID":"2026-124T","EPOCH":"2026-07-13T20:52:10.909344","CLASSIFICATION_TYPE":"U","MEAN_MOTION":13.94782901,"ECCENTRICITY":0.0007364,"INCLINATION":89.0039,"RA_OF_ASC_NODE":359.0325,"ARG_OF_PERICENTER":61.5877,"MEAN_ANOMALY":298.604,"EPHEMERIS_TYPE":0,"NORAD_CAT_ID":69399,"ELEMENT_SET_NO":999,"REV_AT_EPOCH":557,"BSTAR":0.000017915,"MEAN_MOTION_DOT":3.8e-7,"MEAN_MOTION_DDOT":0},{"OBJECT_NAME":"QIANFAN-183","OBJECT_ID":"2026-125A","EPOCH":"2026-07-13T23:19:03.470880","CLASSIFICATION_TYPE":"U","MEAN_MOTION":13.96272998,"ECCENTRICITY":0.0022795,"INCLINATION":88.9945,"RA_OF_ASC_NODE":277.4349,"ARG_OF_PERICENTER":86.9218,"MEAN_ANOMALY":273.4567,"EPHEMERIS_TYPE":0,"NORAD_CAT_ID":69401,"ELEMENT_SET_NO":999,"REV_AT_EPOCH":548,"BSTAR":-1.596,"MEAN_MOTION_DOT":-0.02044664,"MEAN_MOTION_DDOT":0},{"OBJECT_NAME":"QIANFAN-184","OBJECT_ID":"2026-125B","EPOCH":"2026-07-13T23:03:47.966976","CLASSIFICATION_TYPE":"U","MEAN_MOTION":13.94121986,"ECCENTRICITY":0.0120791,"INCLINATION":89.5259,"RA_OF_ASC_NODE":277.1834,"ARG_OF_PERICENTER":77.4448,"MEAN_ANOMALY":284.0207,"EPHEMERIS_TYPE":0,"NORAD_CAT_ID":69402,"ELEMENT_SET_NO":999,"REV_AT_EPOCH":548,"BSTAR":-1.6584,"MEAN_MOTION_DOT":-0.02160154,"MEAN_MOTION_DDOT":0},{"OBJECT_NAME":"QIANFAN-185","OBJECT_ID":"2026-125C","EPOCH":"2026-07-14T04:15:49.550112","CLASSIFICATION_TYPE":"U","MEAN_MOTION":14.05243888,"ECCENTRICITY":0.0018388,"INCLINATION":88.9949,"RA_OF_ASC_NODE":277.4105,"ARG_OF_PERICENTER":85.9674,"MEAN_ANOMALY":274.3609,"EPHEMERIS_TYPE":0,"NORAD_CAT_ID":69403,"ELEMENT_SET_NO":999,"REV_AT_EPOCH":551,"BSTAR":0.00011098,"MEAN_MOTION_DOT":0.00000194,"MEAN_MOTION_DDOT":0},{"OBJECT_NAME":"QIANFAN-186","OBJECT_ID":"2026-125D","EPOCH":"2026-07-14T00:27:16.432416","CLASSIFICATION_TYPE":"U","MEAN_MOTION":13.95072269,"ECCENTRICITY":0.0023511,"INCLINATION":88.9984,"RA_OF_ASC_NODE":277.4188,"ARG_OF_PERICENTER":73.3945,"MEAN_ANOMALY":286.981,"EPHEMERIS_TYPE":0,"NORAD_CAT_ID":69404,"ELEMENT_SET_NO":999,"REV_AT_EPOCH":549,"BSTAR":-1.6786,"MEAN_MOTION_DOT":-0.02101762,"MEAN_MOTION_DDOT":0},{"OBJECT_NAME":"QIANFAN-187","OBJECT_ID":"2026-125E","EPOCH":"2026-07-13T22:14:14.453088","CLASSIFICATION_TYPE":"U","MEAN_MOTION":13.95320803,"ECCENTRICITY":0.0024324,"INCLINATION":88.9942,"RA_OF_ASC_NODE":277.4281,"ARG_OF_PERICENTER":74.3625,"MEAN_ANOMALY":286.0232,"EPHEMERIS_TYPE":0,"NORAD_CAT_ID":69405,"ELEMENT_SET_NO":999,"REV_AT_EPOCH":548,"BSTAR":-1.6998,"MEAN_MOTION_DOT":-0.02135327,"MEAN_MOTION_DDOT":0},{"OBJECT_NAME":"QIANFAN-188","OBJECT_ID":"2026-125F","EPOCH":"2026-07-14T01:00:00.433152","CLASSIFICATION_TYPE":"U","MEAN_MOTION":13.98504379,"ECCENTRICITY":0.0019969,"INCLINATION":88.9944,"RA_OF_ASC_NODE":277.4086,"ARG_OF_PERICENTER":82.4478,"MEAN_ANOMALY":277.8968,"EPHEMERIS_TYPE":0,"NORAD_CAT_ID":69406,"ELEMENT_SET_NO":999,"REV_AT_EPOCH":550,"BSTAR":-1.5767,"MEAN_MOTION_DOT":-0.02095714,"MEAN_MOTION_DDOT":0},{"OBJECT_NAME":"QIANFAN-189","OBJECT_ID":"2026-125G","EPOCH":"2026-07-14T01:21:08.640000","CLASSIFICATION_TYPE":"U","MEAN_MOTION":13.97349321,"ECCENTRICITY":0.0018257,"INCLINATION":88.9946,"RA_OF_ASC_NODE":277.411,"ARG_OF_PERICENTER":69.5008,"MEAN_ANOMALY":290.8127,"EPHEMERIS_TYPE":0,"NORAD_CAT_ID":69407,"ELEMENT_SET_NO":999,"REV_AT_EPOCH":549,"BSTAR":-1.6318,"MEAN_MOTION_DOT":-0.02122687,"MEAN_MOTION_DDOT":0},{"OBJECT_NAME":"QIANFAN-190","OBJECT_ID":"2026-125H","EPOCH":"2026-07-14T01:14:28.572576","CLASSIFICATION_TYPE":"U","MEAN_MOTION":13.96881357,"ECCENTRICITY":0.0016529,"INCLINATION":88.9955,"RA_OF_ASC_NODE":277.4106,"ARG_OF_PERICENTER":71.0052,"MEAN_ANOMALY":289.2914,"EPHEMERIS_TYPE":0,"NORAD_CAT_ID":69408,"ELEMENT_SET_NO":999,"REV_AT_EPOCH":550,"BSTAR":-1.6925,"MEAN_MOTION_DOT":-0.02178703,"MEAN_MOTION_DDOT":0},{"OBJECT_NAME":"QIANFAN-191","OBJECT_ID":"2026-125J","EPOCH":"2026-07-14T00:45:39.019968","CLASSIFICATION_TYPE":"U","MEAN_MOTION":13.97081862,"ECCENTRICITY":0.0018942,"INCLINATION":88.9932,"RA_OF_ASC_NODE":277.4076,"ARG_OF_PERICENTER":71.3721,"MEAN_ANOMALY":288.9511,"EPHEMERIS_TYPE":0,"NORAD_CAT_ID":69409,"ELEMENT_SET_NO":999,"REV_AT_EPOCH":550,"BSTAR":-1.5532,"MEAN_MOTION_DOT":-0.02018704,"MEAN_MOTION_DDOT":0},{"OBJECT_NAME":"QIANFAN-192","OBJECT_ID":"2026-125K","EPOCH":"2026-07-14T00:27:43.185312","CLASSIFICATION_TYPE":"U","MEAN_MOTION":13.97914098,"ECCENTRICITY":0.0022294,"INCLINATION":88.9943,"RA_OF_ASC_NODE":277.4062,"ARG_OF_PERICENTER":75.08,"MEAN_ANOMALY":285.2844,"EPHEMERIS_TYPE":0,"NORAD_CAT_ID":69410,"ELEMENT_SET_NO":999,"REV_AT_EPOCH":550,"BSTAR":-1.5679,"MEAN_MOTION_DOT":-0.02065516,"MEAN_MOTION_DDOT":0}]}
