QIANFAN-177             
1 69394U 26124N   26194.91567600 -.00000009  00000+0 -15687-4 0  9993
2 69394  88.9969 358.9984 0008365  59.0912 301.1088 14.00187022  5603
QIANFAN-178             
1 69395U 26124P   26195.19960852 -.00000036  00000+0 -32302-4 0  9994
2 69395  88.9991 358.9735 0006444  75.1878 285.0016 14.02435711  5647
QIANFAN-179             
1 69396U 26124Q   26194.82632066  .00000090  00000+0  49189-4 0  9996
2 69396  89.0014 359.0110 0005536  59.1069 301.0656 14.02826284  5592
QIANFAN-180             
1 69397U 26124R   26194.89884162  .00000064  00000+0  33630-4 0  9995
2 69397  88.9972 359.0007 0007226  64.6905 295.5022 14.00768991  5601
QIANFAN-181             
1 69398U 26124S   26194.55929990 -.01902195  00000+0 -16505+1 0  9995
2 69398  88.9990 359.0826 0001178  98.1158 262.0148 13.90016116  5536
QIANFAN-182             
1 69399U 26124T   26194.86957071  .00000038  00000+0  17915-4 0  9993
2 69399  89.0039 359.0325 0007364  61.5877 298.6040 13.94782901  5578
QIANFAN-183             
1 69401U 26125A   26194.97156795 -.02044664  00000+0 -15960+1 0  9995
2 69401  88.9945 277.4349 0022795  86.9218 273.4567 13.96272998  5487
QIANFAN-184             
1 69402U 26125B   26194.96097184 -.02160154  00000+0 -16584+1 0  9997
2 69402  89.5259 277.1834 0120791  77.4448 284.0207 13.94121986  5481
QIANFAN-185             
1 69403U 26125C   26195.17765683  .00000194  00000+0  11098-3 0  9999
2 69403  88.9949 277.4105 0018388  85.9674 274.3609 14.05243888  5519
QIANFAN-186             
1 69404U 26125D   26195.01894019 -.02101762  00000+0 -16786+1 0  9992
2 69404  88.9984 277.4188 0023511  73.3945 286.9810 13.95072269  5497
QIANFAN-187             
1 69405U 26125E   26194.92655617 -.02135327  00000+0 -16998+1 0  9990
2 69405  88.9942 277.4281 0024324  74.3625 286.0232 13.95320803  5483
QIANFAN-188             
1 69406U 26125F   26195.04167168 -.02095714  00000+0 -15767+1 0  9992
2 69406  88.9944 277.4086 0019969  82.4478 277.8968 13.98504379  5506
QIANFAN-189             
1 69407U 26125G   26195.05635000 -.02122687  00000+0 -16318+1 0  9992
2 69407  88.9946 277.4110 0018257  69.5008 290.8127 13.97349321  5494
QIANFAN-190             
1 69408U 26125H   26195.05171959 -.02178703  00000+0 -16925+1 0  9995
2 69408  88.9955 277.4106 0016529  71.0052 289.2914 13.96881357  5504
QIANFAN-191             
1 69409U 26125J   26195.03170162 -.02018704  00000+0 -15532+1 0  9996
2 69409  88.9932 277.4076 0018942  71.3721 288.9511 13.97081862  5506
QIANFAN-192             
1 69410U 26125K   26195.01924983 -.02065516  00000+0 -15679+1 0  9999
2 69410  88.9943 277.4062 0022294  75.0800 285.2844 13.97914098  5504
